{"type":"FeatureCollection","features":[{"type":"Feature","properties":{"name":"Albany-Hudson Electric Trail","ref":"AHET","source":"OpenStreetMap (ODbL)"},"geometry":{"type":"LineString","coordinates":[[-73.680573,42.414809],[-73.680368,42.415111],[-73.680305,42.415207],[-73.680189,42.415345],[-73.680027,42.415525],[-73.679916,42.41566],[-73.679823,42.415801],[-73.679529,42.416235],[-73.679485,42.416373],[-73.67943,42.416583],[-73.679391,42.416834],[-73.679368,42.417046],[-73.679324,42.417606],[-73.679294,42.418129],[-73.679258,42.418795],[-73.679221,42.41934],[-73.679184,42.419917],[-73.679132,42.42026]]}},{"type":"Feature","properties":{"name":"Albany-Hudson Electric Trail","ref":"AHET","source":"OpenStreetMap (ODbL)"},"geometry":{"type":"LineString","coordinates":[[-73.67034,42.428787],[-73.671051,42.428837],[-73.67161,42.428882],[-73.672443,42.428937],[-73.672991,42.428968],[-73.673335,42.428978],[-73.673847,42.428935],[-73.674187,42.428883],[-73.67443,42.428837],[-73.674657,42.428771],[-73.674809,42.428723],[-73.67522,42.428573],[-73.675468,42.428442],[-73.675779,42.428216],[-73.676094,42.427959],[-73.67623,42.427836],[-73.676362,42.427706],[-73.676549,42.427451],[-73.676779,42.427023],[-73.677213,42.4258],[-73.677532,42.424928],[-73.677711,42.424393],[-73.677926,42.423776],[-73.678302,42.422723],[-73.678496,42.422182],[-73.67859,42.421882],[-73.678665,42.421693],[-73.679019,42.420717],[-73.679132,42.42026]]}},{"type":"Feature","properties":{"name":"Albany-Hudson Electric Trail","ref":"AHET","source":"OpenStreetMap (ODbL)"},"geometry":{"type":"LineString","coordinates":[[-73.645125,42.461739],[-73.64541,42.461377],[-73.646309,42.460285],[-73.646855,42.459552],[-73.647057,42.459244],[-73.647159,42.45906],[-73.647249,42.458918],[-73.647457,42.458505],[-73.647515,42.458373],[-73.647564,42.458254],[-73.647625,42.458093],[-73.647676,42.457936],[-73.64772,42.457794],[-73.647773,42.45763],[-73.647833,42.457454],[-73.647907,42.457191],[-73.647947,42.457021],[-73.647971,42.45689],[-73.647992,42.456717],[-73.648004,42.456572],[-73.648031,42.456209],[-73.648049,42.455183],[-73.648075,42.454713],[-73.648085,42.454535],[-73.648104,42.454374],[-73.64811,42.454119],[-73.648132,42.453408],[-73.648153,42.453166],[-73.648173,42.452679],[-73.648189,42.452277],[-73.648201,42.452057],[-73.648199,42.451931],[-73.648198,42.451825]]}},{"type":"Feature","properties":{"name":"Albany-Hudson Electric Trail","ref":"AHET","source":"OpenStreetMap (ODbL)"},"geometry":{"type":"LineString","coordinates":[[-73.681729,42.412789],[-73.681766,42.412717],[-73.681784,42.412698],[-73.681838,42.412641],[-73.681898,42.412584],[-73.681971,42.412532],[-73.682048,42.412484],[-73.682273,42.412344],[-73.682735,42.412067],[-73.682967,42.411924],[-73.683027,42.411895],[-73.683161,42.411842],[-73.683262,42.4118],[-73.683563,42.411625],[-73.683692,42.411553],[-73.684239,42.411228],[-73.684858,42.41086],[-73.685887,42.410232],[-73.686223,42.410038],[-73.686273,42.410009]]}},{"type":"Feature","properties":{"name":"Albany-Hudson Electric Trail","ref":"AHET","source":"OpenStreetMap (ODbL)"},"geometry":{"type":"LineString","coordinates":[[-73.709567,42.394606],[-73.709608,42.394588],[-73.709643,42.394573],[-73.709791,42.39449],[-73.710053,42.394371],[-73.710502,42.39417],[-73.711304,42.393801],[-73.71183,42.393569],[-73.712131,42.393444],[-73.712931,42.393086],[-73.712947,42.393078],[-73.713003,42.393053],[-73.713648,42.392758],[-73.715288,42.392015],[-73.715878,42.391748],[-73.716898,42.391279],[-73.717562,42.390976],[-73.717917,42.390803],[-73.71822,42.390634],[-73.718472,42.390483],[-73.718778,42.390283],[-73.719207,42.389957],[-73.719619,42.389573],[-73.71989,42.389303],[-73.720018,42.389131],[-73.720405,42.388532],[-73.720785,42.387978],[-73.721212,42.387393],[-73.721315,42.387254],[-73.721502,42.386974],[-73.721668,42.386725],[-73.721703,42.386678],[-73.721774,42.38659],[-73.722029,42.38634],[-73.722306,42.385933],[-73.722665,42.385428],[-73.722703,42.385363]]}},{"type":"Feature","properties":{"name":"Albany-Hudson Electric Trail","ref":"AHET","source":"OpenStreetMap (ODbL)"},"geometry":{"type":"LineString","coordinates":[[-73.733011,42.359549],[-73.733041,42.359533],[-73.733102,42.359482],[-73.733159,42.35943],[-73.733255,42.35934],[-73.733409,42.359167],[-73.733461,42.359102],[-73.733666,42.358887],[-73.733709,42.358841],[-73.733746,42.358803],[-73.733876,42.358712],[-73.734307,42.358352],[-73.734529,42.358194],[-73.734709,42.358085],[-73.734778,42.358043],[-73.735337,42.357761],[-73.73562,42.357659],[-73.735789,42.357597],[-73.735891,42.357566],[-73.736059,42.357518],[-73.736139,42.357484],[-73.736333,42.3574],[-73.73649,42.35735],[-73.736878,42.357244],[-73.737363,42.357112],[-73.737882,42.356971],[-73.738101,42.35692],[-73.738529,42.356797],[-73.738943,42.356608],[-73.739122,42.35651],[-73.739308,42.356399],[-73.739432,42.356277],[-73.739563,42.356131],[-73.739717,42.355941],[-73.739813,42.355797],[-73.739895,42.355587],[-73.739953,42.355469],[-73.740002,42.355311],[-73.740029,42.3551],[-73.740021,42.354957],[-73.74002,42.354888],[-73.739998,42.354847]]}},{"type":"Feature","properties":{"name":"Albany-Hudson Electric Trail","ref":"AHET","source":"OpenStreetMap (ODbL)"},"geometry":{"type":"LineString","coordinates":[[-73.648239,42.447632],[-73.648189,42.447216],[-73.648164,42.446917],[-73.648162,42.446841],[-73.64817,42.446753],[-73.648185,42.446276],[-73.648181,42.446203],[-73.648163,42.446076],[-73.648168,42.445913],[-73.648156,42.44528],[-73.648157,42.445084],[-73.648151,42.444947],[-73.648112,42.44473],[-73.648101,42.444582],[-73.648086,42.444324],[-73.648091,42.44392],[-73.648092,42.44381],[-73.648083,42.443658],[-73.648077,42.443467],[-73.648075,42.443326],[-73.648057,42.443129],[-73.648049,42.442762],[-73.648044,42.442469],[-73.648052,42.442316],[-73.648095,42.441933],[-73.648111,42.441578],[-73.648142,42.441451],[-73.648238,42.441207],[-73.648409,42.440857],[-73.648568,42.440613],[-73.648715,42.440406],[-73.648825,42.440254],[-73.648979,42.44009],[-73.649261,42.439842],[-73.649964,42.43931],[-73.650451,42.438929],[-73.650536,42.43886],[-73.650774,42.43868],[-73.65087,42.438609],[-73.651252,42.438328],[-73.651702,42.437995],[-73.652057,42.437744],[-73.652172,42.437653],[-73.652329,42.437539],[-73.652578,42.437351],[-73.652945,42.437088],[-73.653711,42.436525],[-73.653849,42.436407],[-73.653941,42.436354],[-73.654069,42.436296],[-73.654404,42.436147],[-73.654606,42.436019],[-73.655189,42.435571],[-73.655438,42.435324],[-73.655701,42.43502],[-73.655883,42.434889],[-73.656,42.434786],[-73.656675,42.434329],[-73.657468,42.433906],[-73.657704,42.433737],[-73.658012,42.433534],[-73.658175,42.433425],[-73.658238,42.433395]]}},{"type":"Feature","properties":{"name":"Albany-Hudson Electric Trail","ref":"AHET","source":"OpenStreetMap (ODbL)"},"geometry":{"type":"LineString","coordinates":[[-73.688186,42.408896],[-73.688228,42.408872],[-73.68853,42.408698],[-73.688788,42.408492],[-73.689508,42.407999],[-73.689862,42.407762],[-73.690343,42.407453],[-73.690429,42.407389],[-73.690682,42.407179]]}},{"type":"Feature","properties":{"name":"Albany-Hudson Electric Trail","ref":"AHET","source":"OpenStreetMap (ODbL)"},"geometry":{"type":"LineString","coordinates":[[-73.694968,42.402431],[-73.695255,42.402224],[-73.695347,42.402158],[-73.695528,42.40208],[-73.695805,42.40189],[-73.696066,42.401693],[-73.696399,42.401481],[-73.696934,42.401132],[-73.697514,42.400733],[-73.697873,42.400511],[-73.697956,42.400459],[-73.698165,42.400312],[-73.698313,42.400195],[-73.698501,42.400071],[-73.698678,42.399961],[-73.699034,42.399726],[-73.699335,42.399551],[-73.699516,42.399442],[-73.699641,42.399359],[-73.699955,42.399182],[-73.700119,42.399082],[-73.700513,42.398869]]}},{"type":"Feature","properties":{"name":"Albany-Hudson Electric Trail","ref":"AHET","source":"OpenStreetMap (ODbL)"},"geometry":{"type":"LineString","coordinates":[[-73.702452,42.397827],[-73.702428,42.397889],[-73.702445,42.397932],[-73.702685,42.398219],[-73.702837,42.398414],[-73.702874,42.39847],[-73.702887,42.398513],[-73.702888,42.398556],[-73.702847,42.399079],[-73.702837,42.399117],[-73.702823,42.399142],[-73.702801,42.399162]]}},{"type":"Feature","properties":{"name":"Albany-Hudson Electric Trail","ref":"AHET","source":"OpenStreetMap (ODbL)"},"geometry":{"type":"LineString","coordinates":[[-73.701512,42.399029],[-73.701448,42.399053],[-73.701384,42.399077],[-73.701316,42.399073],[-73.701281,42.399058],[-73.701227,42.399035],[-73.701161,42.398996],[-73.701102,42.398964],[-73.701028,42.398935],[-73.70091,42.398906],[-73.700746,42.398872],[-73.700661,42.398858],[-73.700574,42.398852],[-73.700513,42.398869]]}},{"type":"Feature","properties":{"name":"Albany-Hudson Electric Trail","ref":"AHET","source":"OpenStreetMap (ODbL)"},"geometry":{"type":"LineString","coordinates":[[-73.702452,42.397827],[-73.703255,42.397452],[-73.704705,42.396802],[-73.70571,42.396349],[-73.706253,42.396102],[-73.708497,42.39509],[-73.709467,42.394643],[-73.709493,42.394633],[-73.70953,42.394619],[-73.709567,42.394606]]}},{"type":"Feature","properties":{"name":"Albany-Hudson Electric Trail","ref":"AHET","source":"OpenStreetMap (ODbL)"},"geometry":{"type":"LineString","coordinates":[[-73.681729,42.412789],[-73.681703,42.412832],[-73.681697,42.41284],[-73.681653,42.412885],[-73.681589,42.413028],[-73.681526,42.413126],[-73.681416,42.413272],[-73.681358,42.413354],[-73.681326,42.413399],[-73.681284,42.413444],[-73.681205,42.413494],[-73.681087,42.41356],[-73.680958,42.413615],[-73.680821,42.413646],[-73.680695,42.413648],[-73.680596,42.413649],[-73.680592,42.413665],[-73.680582,42.413707],[-73.680573,42.413754],[-73.680571,42.413769],[-73.680831,42.413801]]}},{"type":"Feature","properties":{"name":"Albany-Hudson Electric Trail","ref":"AHET","source":"OpenStreetMap (ODbL)"},"geometry":{"type":"LineString","coordinates":[[-73.680831,42.413801],[-73.680828,42.413816],[-73.680742,42.414147],[-73.680762,42.414317],[-73.680755,42.414406]]}},{"type":"Feature","properties":{"name":"Albany-Hudson Electric Trail","ref":"AHET","source":"OpenStreetMap (ODbL)"},"geometry":{"type":"LineString","coordinates":[[-73.658238,42.433395],[-73.658294,42.433368],[-73.658666,42.433015],[-73.658721,42.432973],[-73.658852,42.432892],[-73.658975,42.432816],[-73.65921,42.432317],[-73.659376,42.431512],[-73.659558,42.430943],[-73.659673,42.430522],[-73.65973,42.430366],[-73.659763,42.430287],[-73.659826,42.430184],[-73.660365,42.42957],[-73.661187,42.42917],[-73.661579,42.429028],[-73.661895,42.428941],[-73.662235,42.42888],[-73.662547,42.428844],[-73.662866,42.42883],[-73.663451,42.428819],[-73.664191,42.428802],[-73.665409,42.428748],[-73.665794,42.428744],[-73.666336,42.428745],[-73.667389,42.42872],[-73.668557,42.42869],[-73.668735,42.42869],[-73.668859,42.428694],[-73.669086,42.428689],[-73.669315,42.428703],[-73.669602,42.428719],[-73.670034,42.428763]]}},{"type":"Feature","properties":{"name":"Albany-Hudson Electric Trail","ref":"AHET","source":"OpenStreetMap (ODbL)"},"geometry":{"type":"LineString","coordinates":[[-73.670034,42.428763],[-73.67034,42.428787]]}},{"type":"Feature","properties":{"name":"Albany-Hudson Electric Trail","ref":"AHET","source":"OpenStreetMap (ODbL)"},"geometry":{"type":"LineString","coordinates":[[-73.648239,42.447632],[-73.64827,42.447741],[-73.648258,42.4478],[-73.648187,42.44788],[-73.648152,42.447904]]}},{"type":"Feature","properties":{"name":"Albany-Hudson Electric Trail","ref":"AHET","source":"OpenStreetMap (ODbL)"},"geometry":{"type":"LineString","coordinates":[[-73.739784,42.354141],[-73.739744,42.354057],[-73.739723,42.353971],[-73.739702,42.353857],[-73.739692,42.353768],[-73.739694,42.353698],[-73.739702,42.353628],[-73.739761,42.353419],[-73.739801,42.35326],[-73.739898,42.352897],[-73.739948,42.352723],[-73.739977,42.35265],[-73.740019,42.352576],[-73.740082,42.352492],[-73.740147,42.352411],[-73.740302,42.352224],[-73.740407,42.352094],[-73.740546,42.351914],[-73.740631,42.351798],[-73.740706,42.351681],[-73.740748,42.351575],[-73.740785,42.351463],[-73.740832,42.351289],[-73.740887,42.351101],[-73.740942,42.350811],[-73.740964,42.350637],[-73.74094,42.350411],[-73.740766,42.349684],[-73.740744,42.349526],[-73.740741,42.349322],[-73.74079,42.349005],[-73.740846,42.348777],[-73.740902,42.348623],[-73.741037,42.348339],[-73.741191,42.34809],[-73.741365,42.347889],[-73.741568,42.347699],[-73.742139,42.347273],[-73.742556,42.34696],[-73.742682,42.346847],[-73.74277,42.346745],[-73.742874,42.34662],[-73.742974,42.34649],[-73.743027,42.346404],[-73.74308,42.3463],[-73.743127,42.346177],[-73.74333,42.345453],[-73.743401,42.345236],[-73.743522,42.345063],[-73.743574,42.345011],[-73.743597,42.344935],[-73.743601,42.344803],[-73.743639,42.344686],[-73.7437,42.344597],[-73.743801,42.344471],[-73.743889,42.344359],[-73.744322,42.343758],[-73.744392,42.343653],[-73.744518,42.343496],[-73.744679,42.343241],[-73.744915,42.342724],[-73.745333,42.341856],[-73.74541,42.341696],[-73.745502,42.341481],[-73.745741,42.340953],[-73.745824,42.340732],[-73.745904,42.340488],[-73.745981,42.340115],[-73.746027,42.339765],[-73.74605,42.33919],[-73.746042,42.338724],[-73.746013,42.338224],[-73.746035,42.337624],[-73.746018,42.337411],[-73.74597,42.336935],[-73.745935,42.336664]]}},{"type":"Feature","properties":{"name":"Albany-Hudson Electric Trail","ref":"AHET","source":"OpenStreetMap (ODbL)"},"geometry":{"type":"LineString","coordinates":[[-73.690682,42.407179],[-73.690739,42.407142],[-73.690782,42.407127],[-73.690819,42.407125],[-73.690864,42.407131],[-73.690902,42.40714],[-73.69091,42.407142],[-73.69099,42.407176]]}},{"type":"Feature","properties":{"name":"Albany-Hudson Electric Trail","ref":"AHET","source":"OpenStreetMap (ODbL)"},"geometry":{"type":"LineString","coordinates":[[-73.680755,42.414406],[-73.680739,42.414466]]}},{"type":"Feature","properties":{"name":"Albany-Hudson Electric Trail","ref":"AHET","source":"OpenStreetMap (ODbL)"},"geometry":{"type":"LineString","coordinates":[[-73.680739,42.414466],[-73.680657,42.41465],[-73.680573,42.414809]]}},{"type":"Feature","properties":{"name":"Albany-Hudson Electric Trail","ref":"AHET","source":"OpenStreetMap (ODbL)"},"geometry":{"type":"LineString","coordinates":[[-73.648231,42.448285],[-73.648235,42.448435],[-73.648254,42.449184]]}},{"type":"Feature","properties":{"name":"Albany-Hudson Electric Trail","ref":"AHET","source":"OpenStreetMap (ODbL)"},"geometry":{"type":"LineString","coordinates":[[-73.648289,42.448211],[-73.648231,42.448285]]}},{"type":"Feature","properties":{"name":"Albany-Hudson Electric Trail","ref":"AHET","source":"OpenStreetMap (ODbL)"},"geometry":{"type":"LineString","coordinates":[[-73.694494,42.402513],[-73.694551,42.402528],[-73.694566,42.402531],[-73.694591,42.402538],[-73.694619,42.402541],[-73.694646,42.402543],[-73.694697,42.402541],[-73.694753,42.40253],[-73.694815,42.402508],[-73.694872,42.402484],[-73.694904,42.402468],[-73.694968,42.402431]]}},{"type":"Feature","properties":{"name":"Albany-Hudson Electric Trail","ref":"AHET","source":"OpenStreetMap (ODbL)"},"geometry":{"type":"LineString","coordinates":[[-73.722703,42.385363],[-73.72271,42.385325],[-73.722715,42.385273],[-73.722713,42.385244],[-73.72271,42.385223],[-73.722703,42.385196],[-73.722693,42.385178],[-73.722679,42.385156],[-73.722656,42.385137],[-73.722629,42.385121],[-73.722579,42.38511],[-73.722456,42.385087],[-73.72214,42.38503],[-73.721872,42.384978],[-73.721276,42.384864],[-73.720961,42.384807],[-73.720707,42.384772],[-73.720626,42.384765],[-73.720439,42.384735],[-73.720308,42.384714],[-73.72018,42.384687],[-73.719955,42.384635],[-73.720023,42.384563],[-73.720098,42.384496]]}},{"type":"Feature","properties":{"name":"Albany-Hudson Electric Trail","ref":"AHET","source":"OpenStreetMap (ODbL)"},"geometry":{"type":"LineString","coordinates":[[-73.728374,42.368239],[-73.72833,42.367142],[-73.728289,42.365895],[-73.728279,42.365541],[-73.728263,42.365293],[-73.728313,42.364816],[-73.728364,42.364612],[-73.728537,42.364218],[-73.728777,42.363884],[-73.728914,42.363716],[-73.729041,42.363587],[-73.729192,42.363463],[-73.729552,42.363184],[-73.730064,42.362817],[-73.730275,42.362658],[-73.730463,42.362498],[-73.730635,42.362329],[-73.730785,42.362158],[-73.730873,42.362044],[-73.730934,42.361939],[-73.731009,42.36183]]}},{"type":"Feature","properties":{"name":"Albany-Hudson Electric Trail","ref":"AHET","source":"OpenStreetMap (ODbL)"},"geometry":{"type":"LineString","coordinates":[[-73.731301,42.361362],[-73.731273,42.361421],[-73.731029,42.361789],[-73.731009,42.36183]]}},{"type":"Feature","properties":{"name":"Albany-Hudson Electric Trail","ref":"AHET","source":"OpenStreetMap (ODbL)"},"geometry":{"type":"LineString","coordinates":[[-73.720098,42.384496],[-73.721088,42.383603],[-73.721869,42.382884]]}},{"type":"Feature","properties":{"name":"Albany-Hudson Electric Trail","ref":"AHET","source":"OpenStreetMap (ODbL)"},"geometry":{"type":"LineString","coordinates":[[-73.721869,42.382884],[-73.721806,42.382847],[-73.72175,42.382813],[-73.72186,42.382716]]}},{"type":"Feature","properties":{"name":"Albany-Hudson Electric Trail","ref":"AHET","source":"OpenStreetMap (ODbL)"},"geometry":{"type":"LineString","coordinates":[[-73.731301,42.361362],[-73.7314,42.361265],[-73.731521,42.361116],[-73.731771,42.360857],[-73.732095,42.36053],[-73.732485,42.360116],[-73.732624,42.359976],[-73.732778,42.359841],[-73.732798,42.359806],[-73.732878,42.359577],[-73.73292,42.359564]]}},{"type":"Feature","properties":{"name":"Albany-Hudson Electric Trail","ref":"AHET","source":"OpenStreetMap (ODbL)"},"geometry":{"type":"LineString","coordinates":[[-73.73292,42.359564],[-73.732965,42.359557],[-73.733011,42.359549]]}},{"type":"Feature","properties":{"name":"Path near Lindenwald / historic sites","source":"OpenStreetMap (ODbL)"},"geometry":{"type":"LineString","coordinates":[[-73.70393,42.368378],[-73.704042,42.368433]]}},{"type":"Feature","properties":{"name":"Path near Lindenwald / historic sites","source":"OpenStreetMap (ODbL)"},"geometry":{"type":"LineString","coordinates":[[-73.703797,42.369956],[-73.70394,42.36998],[-73.703975,42.369983],[-73.704025,42.369995]]}},{"type":"Feature","properties":{"name":"Old Post Road","source":"OpenStreetMap (ODbL)"},"geometry":{"type":"LineString","coordinates":[[-73.701592,42.370838],[-73.701683,42.370737]]}},{"type":"Feature","properties":{"name":"Old Post Road","source":"OpenStreetMap (ODbL)"},"geometry":{"type":"LineString","coordinates":[[-73.701683,42.370737],[-73.701838,42.370566]]}},{"type":"Feature","properties":{"name":"Old Post Road","source":"OpenStreetMap (ODbL)"},"geometry":{"type":"LineString","coordinates":[[-73.701838,42.370566],[-73.70211,42.370269],[-73.702637,42.369706]]}},{"type":"Feature","properties":{"name":"Old Post Road","source":"OpenStreetMap (ODbL)"},"geometry":{"type":"LineString","coordinates":[[-73.702637,42.369706],[-73.703394,42.368898],[-73.703663,42.368634],[-73.703704,42.36858],[-73.703871,42.368406],[-73.70393,42.368378]]}},{"type":"Feature","properties":{"name":"Path near Lindenwald / historic sites","source":"OpenStreetMap (ODbL)"},"geometry":{"type":"LineString","coordinates":[[-73.704025,42.369995],[-73.70404,42.370222],[-73.704088,42.370292],[-73.704151,42.370347],[-73.70418,42.370417],[-73.70418,42.370487],[-73.704136,42.370588],[-73.703962,42.370731],[-73.703845,42.370902],[-73.703648,42.371099],[-73.703411,42.371327],[-73.703301,42.371437],[-73.703095,42.371585]]}},{"type":"Feature","properties":{"name":"Path near Lindenwald / historic sites","source":"OpenStreetMap (ODbL)"},"geometry":{"type":"LineString","coordinates":[[-73.704042,42.368433],[-73.704124,42.368354]]}},{"type":"Feature","properties":{"name":"Path near Lindenwald / historic sites","source":"OpenStreetMap (ODbL)"},"geometry":{"type":"LineString","coordinates":[[-73.703519,42.371817],[-73.703095,42.371585]]}},{"type":"Feature","properties":{"name":"Path near Lindenwald / historic sites","source":"OpenStreetMap (ODbL)"},"geometry":{"type":"LineString","coordinates":[[-73.699853,42.37133],[-73.699792,42.371283]]}},{"type":"Feature","properties":{"name":"Path near Lindenwald / historic sites","source":"OpenStreetMap (ODbL)"},"geometry":{"type":"LineString","coordinates":[[-73.704373,42.369224],[-73.704261,42.369359],[-73.704193,42.369459],[-73.70415,42.369511],[-73.704078,42.369585],[-73.704035,42.36962],[-73.703844,42.369744],[-73.703809,42.36979],[-73.703797,42.369825],[-73.703793,42.369874],[-73.703797,42.369956],[-73.703682,42.370041],[-73.703512,42.370185],[-73.703369,42.370273],[-73.703255,42.37033],[-73.703145,42.37036],[-73.702992,42.370387],[-73.702802,42.370401],[-73.702715,42.370401],[-73.702596,42.370393],[-73.702469,42.370372],[-73.702347,42.370352],[-73.70211,42.370269]]}},{"type":"Feature","properties":{"name":"Path near Lindenwald / historic sites","source":"OpenStreetMap (ODbL)"},"geometry":{"type":"LineString","coordinates":[[-73.701838,42.370566],[-73.701779,42.370527],[-73.70171,42.370506]]}},{"type":"Feature","properties":{"name":"Path near Lindenwald / historic sites","source":"OpenStreetMap (ODbL)"},"geometry":{"type":"LineString","coordinates":[[-73.703095,42.371585],[-73.702571,42.371352],[-73.702235,42.371151]]}},{"type":"Feature","properties":{"name":"Path near Lindenwald / historic sites","source":"OpenStreetMap (ODbL)"},"geometry":{"type":"LineString","coordinates":[[-73.70445,42.369453],[-73.704434,42.36939],[-73.704405,42.369315],[-73.704373,42.369224]]}},{"type":"Feature","properties":{"name":"Path near Lindenwald / historic sites","source":"OpenStreetMap (ODbL)"},"geometry":{"type":"LineString","coordinates":[[-73.70445,42.369453],[-73.704698,42.369626],[-73.704973,42.369807],[-73.704336,42.369778]]}},{"type":"Feature","properties":{"name":"Path near Lindenwald / historic sites","source":"OpenStreetMap (ODbL)"},"geometry":{"type":"LineString","coordinates":[[-73.704336,42.369778],[-73.704419,42.369598],[-73.704458,42.369487],[-73.70445,42.369453]]}},{"type":"Feature","properties":{"name":"Path near Lindenwald / historic sites","source":"OpenStreetMap (ODbL)"},"geometry":{"type":"LineString","coordinates":[[-73.702088,42.370849],[-73.702066,42.370773],[-73.70204,42.370723],[-73.701838,42.370566]]}},{"type":"Feature","properties":{"name":"Path near Lindenwald / historic sites","source":"OpenStreetMap (ODbL)"},"geometry":{"type":"LineString","coordinates":[[-73.701213,42.370847],[-73.700958,42.370986],[-73.700724,42.371047],[-73.700447,42.370915],[-73.699853,42.37133]]}},{"type":"Feature","properties":{"name":"Path near Lindenwald / historic sites","source":"OpenStreetMap (ODbL)"},"geometry":{"type":"LineString","coordinates":[[-73.702241,42.370865],[-73.70216,42.370799],[-73.702088,42.370849],[-73.702036,42.370885],[-73.702049,42.370896]]}},{"type":"Feature","properties":{"name":"Path near Lindenwald / historic sites","source":"OpenStreetMap (ODbL)"},"geometry":{"type":"LineString","coordinates":[[-73.704042,42.368433],[-73.704195,42.36856],[-73.704326,42.368725],[-73.704371,42.368845],[-73.704389,42.368971],[-73.704373,42.369224]]}},{"type":"Feature","properties":{"name":"Path near Lindenwald / historic sites","source":"OpenStreetMap (ODbL)"},"geometry":{"type":"LineString","coordinates":[[-73.702637,42.369706],[-73.702937,42.369717],[-73.703491,42.369631],[-73.703681,42.369461],[-73.703732,42.369251],[-73.704042,42.368433]]}},{"type":"Feature","properties":{"name":"Path near Lindenwald / historic sites","source":"OpenStreetMap (ODbL)"},"geometry":{"type":"LineString","coordinates":[[-73.704025,42.369995],[-73.704114,42.369983],[-73.704193,42.369968],[-73.704229,42.369948],[-73.70426,42.369919],[-73.704308,42.369839],[-73.704336,42.369778]]}},{"type":"Feature","properties":{"name":"Path near Lindenwald / historic sites","source":"OpenStreetMap (ODbL)"},"geometry":{"type":"LineString","coordinates":[[-73.700235,42.379949],[-73.700647,42.379746],[-73.701042,42.379556],[-73.700865,42.379352],[-73.700585,42.379119],[-73.700428,42.378817],[-73.700433,42.378459],[-73.700428,42.378082],[-73.700587,42.377698],[-73.700673,42.377366],[-73.70084,42.377042],[-73.701025,42.376763],[-73.700729,42.376503],[-73.700484,42.376307],[-73.700312,42.376154]]}},{"type":"Feature","properties":{"name":"Dutch Farming Heritage Trail","source":"OpenStreetMap (ODbL)"},"geometry":{"type":"LineString","coordinates":[[-73.700312,42.376154],[-73.69996,42.37592],[-73.699618,42.376074],[-73.699286,42.376259],[-73.699036,42.376176],[-73.698919,42.37598],[-73.698633,42.375678],[-73.69824,42.375528],[-73.697704,42.375301],[-73.697194,42.375079],[-73.697025,42.374928],[-73.696908,42.374638],[-73.696694,42.374393],[-73.696335,42.374127]]}},{"type":"Feature","properties":{"name":"Dutch Farming Heritage Trail","source":"OpenStreetMap (ODbL)"},"geometry":{"type":"LineString","coordinates":[[-73.700312,42.376154],[-73.700429,42.376086],[-73.700741,42.376293],[-73.701333,42.376723],[-73.701966,42.377202],[-73.702257,42.377028],[-73.702379,42.37687],[-73.702159,42.376512],[-73.702114,42.376293],[-73.70243,42.376022],[-73.702823,42.375607],[-73.703017,42.375407],[-73.703088,42.375132],[-73.703109,42.374932],[-73.703058,42.374736],[-73.703155,42.374634],[-73.703359,42.374551],[-73.703379,42.374302],[-73.703313,42.374091],[-73.703109,42.373763],[-73.702859,42.373394],[-73.702706,42.373145],[-73.702573,42.372817],[-73.702399,42.372587],[-73.702649,42.372417],[-73.702981,42.372248],[-73.703318,42.371999],[-73.703519,42.371817],[-73.704002,42.371361],[-73.704283,42.371067],[-73.70442,42.370818],[-73.70418,42.370417]]}},{"type":"Feature","properties":{"name":"Path near Lindenwald / historic sites","source":"OpenStreetMap (ODbL)"},"geometry":{"type":"LineString","coordinates":[[-73.699792,42.371283],[-73.699137,42.370729],[-73.698489,42.370362],[-73.697343,42.369653],[-73.696257,42.369037],[-73.695941,42.368873],[-73.695334,42.368712],[-73.695028,42.368589],[-73.694912,42.368517],[-73.694876,42.368396],[-73.694864,42.36829],[-73.694785,42.368201],[-73.694624,42.368111],[-73.694442,42.367876],[-73.694353,42.367684],[-73.694386,42.367386],[-73.694532,42.367137],[-73.694523,42.366956],[-73.694417,42.366783],[-73.694189,42.366563],[-73.694097,42.366661],[-73.69398,42.366706],[-73.693837,42.366679],[-73.693597,42.366465],[-73.693439,42.366344],[-73.693286,42.366284],[-73.693174,42.36631],[-73.693123,42.366419],[-73.693102,42.36671],[-73.693026,42.366827],[-73.692648,42.367324],[-73.692556,42.367954],[-73.692576,42.368354],[-73.692755,42.368576],[-73.693026,42.368742],[-73.69323,42.368776],[-73.69351,42.368667],[-73.693561,42.368802],[-73.693648,42.368851],[-73.69375,42.369349],[-73.693817,42.369594],[-73.693923,42.369657],[-73.694014,42.369673],[-73.694328,42.369577],[-73.694375,42.369673],[-73.694302,42.369775],[-73.694494,42.370172],[-73.694627,42.370564],[-73.694721,42.370662],[-73.694855,42.370724],[-73.694988,42.370705],[-73.695122,42.370708],[-73.695277,42.37074],[-73.695457,42.37083],[-73.695547,42.370916],[-73.695692,42.371094],[-73.695569,42.371126],[-73.695371,42.371089],[-73.695067,42.371209],[-73.694865,42.37143],[-73.69484,42.371628],[-73.694887,42.371838],[-73.694963,42.372009],[-73.6951,42.37215],[-73.695237,42.372201],[-73.695508,42.372179],[-73.695656,42.372249],[-73.695739,42.372238],[-73.695782,42.372179],[-73.695854,42.37215],[-73.695948,42.372166],[-73.696098,42.372275],[-73.696315,42.372518],[-73.696528,42.37263],[-73.696766,42.372662],[-73.696972,42.372627],[-73.697047,42.372558],[-73.696881,42.372406],[-73.69686,42.372169],[-73.696903,42.372041],[-73.697,42.371972],[-73.697105,42.371817],[-73.69713,42.371646],[-73.697155,42.371609],[-73.697426,42.371505],[-73.697502,42.371438],[-73.697599,42.37114],[-73.697704,42.370934],[-73.697866,42.370745],[-73.698281,42.370444],[-73.698489,42.370362]]}},{"type":"Feature","properties":{"name":"Path near Lindenwald / historic sites","source":"OpenStreetMap (ODbL)"},"geometry":{"type":"LineString","coordinates":[[-73.695941,42.368873],[-73.695513,42.368632],[-73.695113,42.368414],[-73.694864,42.36829],[-73.694603,42.368239],[-73.694211,42.368271],[-73.693674,42.368262],[-73.693538,42.368179],[-73.693486,42.368033],[-73.693471,42.367804],[-73.693495,42.367623],[-73.693486,42.367472],[-73.693462,42.36706],[-73.693307,42.366892],[-73.693026,42.366827]]}},{"type":"Feature","properties":{"name":"Path near Lindenwald / historic sites","source":"OpenStreetMap (ODbL)"},"geometry":{"type":"LineString","coordinates":[[-73.695816,42.369411],[-73.695504,42.369722],[-73.695421,42.369804],[-73.695215,42.369873],[-73.69516,42.369934],[-73.695181,42.37],[-73.695112,42.370061],[-73.694915,42.370118],[-73.694782,42.370187],[-73.694653,42.37039],[-73.694627,42.370564]]}},{"type":"Feature","properties":{"name":"Path near Lindenwald / historic sites","source":"OpenStreetMap (ODbL)"},"geometry":{"type":"LineString","coordinates":[[-73.695816,42.369411],[-73.695756,42.369252],[-73.695699,42.369168],[-73.695683,42.369144],[-73.695552,42.369181],[-73.695424,42.369217],[-73.695402,42.369322],[-73.695362,42.369406],[-73.695226,42.36949],[-73.695036,42.3694],[-73.694864,42.369419],[-73.694764,42.369494],[-73.694662,42.369462],[-73.694458,42.369355],[-73.694378,42.369245],[-73.694536,42.36909],[-73.694537,42.368983],[-73.694529,42.368916],[-73.69452,42.368799],[-73.694535,42.368727],[-73.694606,42.368669],[-73.694735,42.368539],[-73.694726,42.368425],[-73.694876,42.368396]]}},{"type":"Feature","properties":{"name":"Path near Lindenwald / historic sites","source":"OpenStreetMap (ODbL)"},"geometry":{"type":"LineString","coordinates":[[-73.69658,42.369965],[-73.696546,42.370114],[-73.696567,42.370276],[-73.696541,42.370317],[-73.696387,42.370362],[-73.696207,42.370451],[-73.696108,42.370514],[-73.696099,42.370609],[-73.696082,42.370866],[-73.695975,42.371059],[-73.695859,42.371091],[-73.695769,42.371082],[-73.695692,42.371094]]}},{"type":"Feature","properties":{"name":"Path near Lindenwald / historic sites","source":"OpenStreetMap (ODbL)"},"geometry":{"type":"LineString","coordinates":[[-73.695941,42.368873],[-73.69578,42.369011],[-73.695712,42.369058],[-73.695699,42.369168]]}},{"type":"Feature","properties":{"name":"Path near Lindenwald / historic sites","source":"OpenStreetMap (ODbL)"},"geometry":{"type":"LineString","coordinates":[[-73.697343,42.369653],[-73.697189,42.369972],[-73.697022,42.370038],[-73.696919,42.370054],[-73.69658,42.369965],[-73.696224,42.369791],[-73.695915,42.369699],[-73.695846,42.369636],[-73.695816,42.369411]]}},{"type":"Feature","properties":{"name":"Path near Lindenwald / historic sites","source":"OpenStreetMap (ODbL)"},"geometry":{"type":"LineString","coordinates":[[-73.695504,42.369722],[-73.695355,42.369656],[-73.695243,42.369601],[-73.695116,42.369587],[-73.694981,42.369576],[-73.694846,42.369583],[-73.694696,42.369545],[-73.694519,42.369501],[-73.694421,42.369532],[-73.694328,42.369577]]}}]}